      2.10          N: GNSS NAV DATA                        RINEX VERSION / TYPE
fic2rin                                 12/23/2019 00:20:12 PGM / RUN BY / DATE
                                                            END OF HEADER
 1 19 12 22 22  0  0.0-2.382919192314e-04-1.227817847393e-11 0.000000000000e+00
    5.800000000000e+01-4.846875000000e+01 3.664438352852e-09-2.857567967233e+00
   -2.516433596611e-06 9.205625159666e-03 1.215003430843e-05 5.153646736145e+03
    7.920000000000e+04-3.725290298462e-08-4.520273615997e-01-1.862645149231e-08
    9.785791655902e-01 1.530000000000e+02 7.592390259472e-01-7.449238862128e-09
    3.532289991199e-10 1.000000000000e+00 2.085000000000e+03 0.000000000000e+00
    2.400000000000e+00 0.000000000000e+00 5.587935447693e-09 5.800000000000e+01
    7.200000000000e+04 4.000000000000e+00
 7 19 12 22 22  0  0.0-1.757354475558e-04-8.185452315956e-12 0.000000000000e+00
    3.000000000000e+00 9.887500000000e+01 4.386968449130e-09 2.721542491214e+00
    4.991888999939e-06 1.320358330850e-02 1.195073127747e-05 5.153720348358e+03
    7.920000000000e+04-1.303851604462e-08 2.695562435418e+00-1.937150955200e-07
    9.543417231806e-01 1.455312500000e+02-2.420595659434e+00-7.694606225520e-09
   -4.750197864808e-11 1.000000000000e+00 2.085000000000e+03 0.000000000000e+00
    2.400000000000e+00 0.000000000000e+00-1.117587089539e-08 3.000000000000e+00
    7.200000000000e+04 4.000000000000e+00
 9 19 12 22 22  0  0.0-1.146281138062e-04-9.322320693173e-12 0.000000000000e+00
    1.000000000000e+01-2.809375000000e+01 4.973064290946e-09-1.651790517077e-01
   -1.708045601845e-06 1.711558084935e-03 7.966533303261e-06 5.153534519196e+03
    7.920000000000e+04 3.725290298462e-08 1.620610104962e+00 1.490116119385e-08
    9.520921092008e-01 2.222500000000e+02 1.685460334462e+00-8.207841889560e-09
   -4.275178078327e-10 1.000000000000e+00 2.085000000000e+03 0.000000000000e+00
    2.400000000000e+00 0.000000000000e+00 1.396983861923e-09 1.000000000000e+01
    7.200000000000e+04 4.000000000000e+00
 5 19 12 22 22  0  0.0-5.054753273726e-06-5.684341886081e-13 0.000000000000e+00
    6.200000000000e+01 1.575000000000e+01 4.979493130162e-09 5.735760928894e-03
    9.275972843170e-07 5.797648685984e-03 6.755813956261e-06 5.153561338425e+03
    7.920000000000e+04 7.450580596924e-09 5.591547386278e-01 8.009374141693e-08
    9.513568553517e-01 2.436875000000e+02 8.055793216466e-01-8.320703733566e-09
    5.075211402926e-10 1.000000000000e+00 2.085000000000e+03 0.000000000000e+00
    2.400000000000e+00 0.000000000000e+00-1.117587089539e-08 6.200000000000e+01
    7.200000000000e+04 4.000000000000e+00
 3 19 12 22 22  0  0.0-5.777692422271e-05-7.048583938740e-12 0.000000000000e+00
    4.500000000000e+01 1.362500000000e+01 4.693409785071e-09 2.251126539016e+00
    7.450580596924e-07 2.609272720292e-03 6.293877959251e-06 5.153639850616e+03
    7.920000000000e+04-1.676380634308e-08 5.888876679123e-01-4.656612873077e-08
    9.644468780894e-01 2.587500000000e+02 7.828335831552e-01-8.106766250783e-09
    4.603763193788e-10 1.000000000000e+00 2.085000000000e+03 0.000000000000e+00
    2.400000000000e+00 0.000000000000e+00 2.328306436539e-09 4.500000000000e+01
    7.200000000000e+04 4.000000000000e+00
 4 19 12 22 22  0  0.0-2.399086952209e-05-4.888534022029e-12 0.000000000000e+00
    5.600000000000e+01-2.487500000000e+01 4.752340811213e-09-1.620022073336e+00
   -1.449137926102e-06 4.150825552642e-04 8.078292012215e-06 5.153728992462e+03
    7.920000000000e+04 4.470348358154e-08 1.667305873662e+00 5.401670932770e-08
    9.594297098356e-01 2.211875000000e+02-2.668844245287e+00-8.051406801982e-09
   -4.196603376804e-10 1.000000000000e+00 2.085000000000e+03 0.000000000000e+00
    6.850000000000e+00 6.300000000000e+01-4.190951585770e-09 8.240000000000e+02
    7.200000000000e+04 4.000000000000e+00
12 19 12 22 22  0  0.0 1.703901216388e-04-4.092726157978e-12 0.000000000000e+00
    1.100000000000e+01 8.543750000000e+01 4.304465012531e-09 2.123821658108e+00
    4.157423973083e-06 7.728666532785e-03 3.067776560783e-06 5.153776773453e+03
    7.920000000000e+04-7.450580596924e-08-2.484341549632e+00-1.192092895508e-07
    9.804132684108e-01 3.277812500000e+02 1.094045759374e+00-8.128195714834e-09
    1.403629895391e-10 1.000000000000e+00 2.085000000000e+03 0.000000000000e+00
    2.400000000000e+00 0.000000000000e+00-1.257285475731e-08 1.100000000000e+01
    7.200000000000e+04 4.000000000000e+00
16 19 12 22 22  0  0.0-1.057502813637e-04-3.865352482535e-12 0.000000000000e+00
    4.500000000000e+01 6.631250000000e+01 4.418755487474e-09 2.669103895691e-01
    3.643333911896e-06 1.113337778952e-02 2.214685082436e-06 5.153685880661e+03
    7.920000000000e+04 6.519258022308e-08-2.465452104159e+00 1.359730958939e-07
    9.806845826607e-01 3.434062500000e+02 5.827918726036e-01-8.403921485634e-09
    3.142988060926e-11 1.000000000000e+00 2.085000000000e+03 0.000000000000e+00
    2.400000000000e+00 0.000000000000e+00-1.024454832077e-08 4.500000000000e+01
    7.200000000000e+04 4.000000000000e+00
10 19 12 22 22  0  0.0-1.820777542889e-04-1.409716787748e-11 0.000000000000e+00
    5.600000000000e+01 1.903125000000e+01 4.730554189427e-09 1.417363053123e+00
    1.028180122375e-06 5.210918490775e-03 6.562098860741e-06 5.153659654617e+03
    7.920000000000e+04-1.862645149231e-08 5.857638053108e-01 1.117587089539e-07
    9.644293508679e-01 2.544687500000e+02-2.722786976607e+00-8.197484315269e-09
    3.989451890970e-10 1.000000000000e+00 2.085000000000e+03 0.000000000000e+00
    2.400000000000e+00 0.000000000000e+00 1.862645149231e-09 5.600000000000e+01
    7.200000000000e+04 4.000000000000e+00
 8 19 12 22 22  0  0.0-1.766299828887e-05-1.250555214938e-12 0.000000000000e+00
    6.400000000000e+01-9.134375000000e+01 4.411612332790e-09-4.571250561792e-01
   -4.826113581657e-06 4.889250965789e-03 4.751607775688e-06 5.153599479675e+03
    7.920000000000e+04 5.401670932770e-08-1.520591618882e+00-5.029141902924e-08
    9.698960475149e-01 2.943437500000e+02-2.228745482595e-01-8.261058391955e-09
   -3.878732993369e-10 1.000000000000e+00 2.085000000000e+03 0.000000000000e+00
    2.400000000000e+00 0.000000000000e+00 5.122274160385e-09 6.400000000000e+01
    7.200000000000e+04 4.000000000000e+00
13 19 12 22 22  0  0.0-2.494081854820e-05 2.501110429876e-12 0.000000000000e+00
    3.200000000000e+01-3.112500000000e+01 4.577690679191e-09-1.548051233450e+00
   -1.560896635056e-06 4.159888718277e-03 8.799135684967e-06 5.153659887314e+03
    7.920000000000e+04 8.381903171539e-08 1.761123554711e+00 1.862645149231e-09
    9.674120960026e-01 2.122187500000e+02 1.178614487579e+00-7.957117160155e-09
   -4.946634618616e-10 1.000000000000e+00 2.085000000000e+03 0.000000000000e+00
    2.400000000000e+00 0.000000000000e+00-1.117587089539e-08 3.200000000000e+01
    7.200000000000e+04 4.000000000000e+00
11 19 12 22 22  0  0.0-4.117120988667e-04 1.091393642128e-11 0.000000000000e+00
    7.500000000000e+01-1.088437500000e+02 5.196287874819e-09 2.603708211332e+00
   -5.466863512993e-06 1.594436133746e-02 9.609386324883e-06 5.152865550995e+03
    7.920000000000e+04 1.750886440277e-07-9.163244892330e-01 9.126961231232e-08
    9.115722466659e-01 1.654375000000e+02 1.968979711360e+00-8.171768958406e-09
   -2.153661137202e-10 1.000000000000e+00 2.085000000000e+03 0.000000000000e+00
    2.400000000000e+00 0.000000000000e+00-1.210719347000e-08 7.500000000000e+01
    7.200000000000e+04 4.000000000000e+00
31 19 12 22 22  0  0.0-1.157447695732e-05-2.501110429876e-12 0.000000000000e+00
    5.500000000000e+01 7.953125000000e+01 4.370182035623e-09 2.373852682367e+00
    4.241243004799e-06 9.643479832448e-03 1.152977347374e-05 5.153762916565e+03
    7.920000000000e+04-2.104789018631e-07 2.710470686852e+00 1.098960638046e-07
    9.588363619660e-01 1.583750000000e+02 8.906232978067e-02-7.813539751008e-09
   -1.221479450951e-10 1.000000000000e+00 2.085000000000e+03 0.000000000000e+00
    2.400000000000e+00 0.000000000000e+00-1.350417733192e-08 5.500000000000e+01
    7.200000000000e+04 4.000000000000e+00
27 19 12 22 22  0  0.0-1.585017889738e-04-1.159605744760e-11 0.000000000000e+00
    3.700000000000e+01-9.259375000000e+01 4.262320399896e-09-6.689431226804e-01
   -4.928559064865e-06 7.522825500928e-03 4.803761839867e-06 5.153655916214e+03
    7.920000000000e+04 1.117587089539e-07-1.507557403543e+00 1.117587089539e-07
    9.782604469428e-01 2.949375000000e+02 4.983590436374e-01-8.194269895661e-09
   -4.096599211229e-10 1.000000000000e+00 2.085000000000e+03 0.000000000000e+00
    2.400000000000e+00 0.000000000000e+00 1.862645149231e-09 3.700000000000e+01
    7.200000000000e+04 4.000000000000e+00
14 19 12 22 22  0  0.0-4.327809438109e-05 2.273736754432e-12 0.000000000000e+00
    3.800000000000e+01-2.596875000000e+01 4.775913221670e-09-9.798465412615e-01
   -1.162290573120e-06 1.074987475295e-02 8.212402462959e-06 5.153597377777e+03
    7.920000000000e+04-8.568167686462e-08 1.715247169352e+00 2.831220626831e-07
    9.599787005661e-01 2.227812500000e+02-1.930620499830e+00-8.178197797622e-09
   -4.428755904031e-10 1.000000000000e+00 2.085000000000e+03 0.000000000000e+00
    2.400000000000e+00 0.000000000000e+00-9.778887033463e-09 3.800000000000e+01
    7.200000000000e+04 4.000000000000e+00
30 19 12 22 22  0  0.0-1.119719818234e-04-8.640199666843e-12 0.000000000000e+00
    4.300000000000e+01 1.011562500000e+02 4.862702551080e-09 2.700945893489e+00
    5.250796675682e-06 4.153946996666e-03 1.191347837448e-05 5.153719598770e+03
    7.920000000000e+04-7.264316082001e-08 2.720600459747e+00-3.166496753693e-08
    9.397259105333e-01 1.391875000000e+02-2.923367643734e+00-8.072121950566e-09
   -2.535819912792e-11 1.000000000000e+00 2.085000000000e+03 0.000000000000e+00
    2.400000000000e+00 0.000000000000e+00 3.725290298462e-09 4.300000000000e+01
    7.200000000000e+04 4.000000000000e+00
